[{"OBJECT_NAME":"STARLINK-4108","OBJECT_ID":"2022-062E","EPOCH":"2026-03-09T07:08:21.181632","MEAN_MOTION":15.08841845,"ECCENTRICITY":0.00015446,"INCLINATION":53.2182,"RA_OF_ASC_NODE":35.8811,"ARG_OF_PERICENTER":79.6679,"MEAN_ANOMALY":280.4487,"EPHEMERIS_TYPE":0,"CLASSIFICATION_TYPE":"U","NORAD_CAT_ID":52834,"ELEMENT_SET_NO":999,"REV_AT_EPOCH":20572,"BSTAR":3.8282983e-5,"MEAN_MOTION_DOT":3.21e-6,"MEAN_MOTION_DDOT":0},{"OBJECT_NAME":"CICERO 3","OBJECT_ID":"2017-042AA","EPOCH":"2026-03-09T22:34:09.559488","MEAN_MOTION":15.06999011,"ECCENTRICITY":0.00123402,"INCLINATION":97.4153,"RA_OF_ASC_NODE":238.2133,"ARG_OF_PERICENTER":85.148,"MEAN_ANOMALY":275.1157,"EPHEMERIS_TYPE":0,"CLASSIFICATION_TYPE":"U","NORAD_CAT_ID":42849,"ELEMENT_SET_NO":999,"REV_AT_EPOCH":47226,"BSTAR":0.00039473976,"MEAN_MOTION_DOT":5.861e-5,"MEAN_MOTION_DDOT":0}]
